MICROSAT-R DEB          
1 44383U 19006DE  21275.00594912  .00048816  11362-5  64627-3 0  9998
2 44383  96.1748 280.4560 0630846  94.3947 272.9556 14.51119963122851
